STARLINK-36358          
1 67598U 26018K   26139.15893872  .00014547  00000+0  45222-3 0  9994
2 67598  97.2842 204.3679 0000841  79.0203 281.1135 15.33433556 18136
STARLINK-36582          
1 67599U 26018L   26139.14262885  .00013447  00000+0  41791-3 0  9993
2 67599  97.2814 204.3872 0001027 119.3303 240.8042 15.33460511 18182
STARLINK-36640          
1 67600U 26018M   26139.16165692  .00012000  00000+0  37324-3 0  9997
2 67600  97.2834 204.3679 0001285  98.8144 261.3244 15.33461771 18138
STARLINK-36635          
1 67601U 26018N   26139.19428207  .00014566  00000+0  45259-3 0  9990
2 67601  97.2833 204.4748 0002561 310.3814  49.7204 15.33446937 18142
STARLINK-36631          
1 67602U 26018P   26139.12087352  .00011334  00000+0  35271-3 0  9999
2 67602  97.2825 204.4206 0000888 118.0695 242.0637 15.33459477 18133
STARLINK-36626          
1 67603U 26018Q   26139.13719097  .00016402  00000+0  50898-3 0  9992
2 67603  97.2838 204.3996 0000900 105.7277 254.4066 15.33463550 18137
STARLINK-36605          
1 67604U 26018R   26139.21875602  .00006332  00000+0  19826-3 0  9994
2 67604  97.2841 204.4409 0000830 101.0972 259.0364 15.33452438 18141
STARLINK-36281          
1 67605U 26018S   26139.17253458  .00019117  00000+0  59250-3 0  9999
2 67605  97.2851 204.3537 0001048  96.4932 263.6430 15.33470481 18131
STARLINK-35843          
1 67606U 26018T   26139.14806385  .00012464  00000+0  38759-3 0  9999
2 67606  97.2838 204.3844 0000918 104.9650 255.1695 15.33460696 18131
STARLINK-36351          
1 67607U 26018U   26139.13447866  .00019036  00000+0  59019-3 0  9998
2 67607  97.2840 204.4032 0001046  85.2214 274.9148 15.33460642 18138
STARLINK-36411          
1 67608U 26018V   26139.17525554  .00016496  00000+0  51180-3 0  9992
2 67608  97.2841 204.3491 0000679 109.4403 250.6913 15.33468012 18138
STARLINK-36312          
1 67609U 26018W   26139.13176021  .00015140  00000+0  47032-3 0  9996
2 67609  97.2860 204.4095 0000293  90.1371 269.9905 15.33447010 18132
STARLINK-36387          
1 67610U 26018X   26139.19127052  .00135041  00000+0  89278-3 0  9995
2 67610  97.2817 208.6004 0002211   6.6923 353.4371 15.75168610 18418
STARLINK-36636          
1 67611U 26018Y   26139.11543436  .00015371  00000+0  47719-3 0  9993
2 67611  97.2838 204.2766 0000314 148.1201 212.0061 15.33464658 18121
STARLINK-36407          
1 67612U 26018Z   26139.19155446 -.00014209  00000+0 -43820-3 0  9992
2 67612  97.2841 204.4827 0001034 116.8210 243.3138 15.33474756 18197
STARLINK-36597          
1 67613U 26018AA  26139.16709624  .00011323  00000+0  35238-3 0  9999
2 67613  97.2843 204.3611 0000952 118.4091 241.7248 15.33460009 18137
NEONSAT-1A              
1 67614U 26019A   26139.31202275  .00001284  00000+0  86751-4 0  9990
2 67614  97.4235 260.4435 0011800 294.1862  65.8132 15.08247494 16468
STARLINK-36548          
1 67617U 26020A   26139.26470066  .00013517  00000+0  49971-3 0  9998
2 67617  43.0011 101.5216 0001215 278.5399  81.5315 15.27587462 16902
STARLINK-36601          
1 67618U 26020B   26139.25056330  .00005688  00000+0  21606-3 0  9997
2 67618  43.0007 101.3957 0001053 263.1046  96.9686 15.27578877 16908
STARLINK-36119          
1 67619U 26020C   26139.25827786  .00008405  00000+0  31441-3 0  9997
2 67619  43.0005 101.4687 0001088 248.3244 111.7491 15.27600837 16903
STARLINK-36607          
1 67620U 26020D   26139.28125499  .00009292  00000+0  34669-3 0  9994
2 67620  43.0057 100.7587 0001647 258.7303 101.3364 15.27585622 16914
STARLINK-36615          
1 67621U 26020E   26139.20188214  .00008683  00000+0  32465-3 0  9996
2 67621  43.0016 101.8869 0000756 270.4857  89.5908 15.27582758 16895
STARLINK-36614          
1 67622U 26020F   26139.24800525  .00008749  00000+0  32691-3 0  9991
2 67622  43.0005 101.3861 0001199 270.0175  90.0539 15.27595759 16906
STARLINK-36600          
1 67623U 26020G   26139.25442239  .00007397  00000+0  27801-3 0  9992
2 67623  43.0016 101.4423 0000774 259.3061 100.7703 15.27583160 16901
STARLINK-36439          
1 67624U 26020H   26139.23769933 -.00003011  00000+0 -99920-4 0  9997
2 67624  43.0011 101.3093 0001427 264.7549  95.3140 15.27579201 16901
STARLINK-36438          
1 67625U 26020J   26139.24542661  .00007215  00000+0  27145-3 0  9993
2 67625  43.0005 101.3684 0000681 254.4356 105.6420 15.27578815 16900
STARLINK-36436          
1 67626U 26020K   26139.22357891  .00010061  00000+0  37459-3 0  9993
2 67626  43.0042 101.1918 0001541 266.9743  93.0933 15.27582383 16908
STARLINK-36502          
1 67627U 26020L   26139.23386463  .00007563  00000+0  28410-3 0  9992
2 67627  43.0021 101.2840 0001448 279.7904  80.2784 15.27577865 16909
STARLINK-36532          
1 67628U 26020M   26139.29410656  .00008881  00000+0  33180-3 0  9995
2 67628  43.0036 100.8574 0001497 272.8879  87.1802 15.27586127 16913
STARLINK-36367          
1 67629U 26020N   26138.96074835  .00012440  00000+0  46081-3 0  9994
2 67629  43.0060 102.6617 0002025 267.4716  92.5904 15.27581957 16860
