OBJECT_NAME,OBJECT_ID,EPOCH,MEAN_MOTION,ECCENTRICITY,INCLINATION,RA_OF_ASC_NODE,ARG_OF_PERICENTER,MEAN_ANOMALY,EPHEMERIS_TYPE,CLASSIFICATION_TYPE,NORAD_CAT_ID,ELEMENT_SET_NO,REV_AT_EPOCH,BSTAR,MEAN_MOTION_DOT,MEAN_MOTION_DDOT
STARLINK-36358,2026-018K,2026-05-19T03:48:52.305408,15.33433556,.0000841,97.2842,204.3679,79.0203,281.1135,0,U,67598,999,1813,.45221692E-3,.14547E-3,0
STARLINK-36582,2026-018L,2026-05-19T03:25:23.132640,15.33460511,.0001027,97.2814,204.3872,119.3303,240.8042,0,U,67599,999,1818,.41790705E-3,.13447E-3,0
STARLINK-36640,2026-018M,2026-05-19T03:52:47.157888,15.33461771,.0001285,97.2834,204.3679,98.8144,261.3244,0,U,67600,999,1813,.37323857E-3,.12E-3,0
STARLINK-36635,2026-018N,2026-05-19T04:39:45.970848,15.33446937,.00025618,97.2833,204.4748,310.3814,49.7204,0,U,67601,999,1814,.45259314E-3,.14566E-3,0
STARLINK-36631,2026-018P,2026-05-19T02:54:03.472128,15.33459477,.00008886,97.2825,204.4206,118.0695,242.0637,0,U,67602,999,1813,.35271438E-3,.11334E-3,0
STARLINK-36626,2026-018Q,2026-05-19T03:17:33.299808,15.33463550,.00009003,97.2838,204.3996,105.7277,254.4066,0,U,67603,999,1813,.50898096E-3,.16402E-3,0
STARLINK-36605,2026-018R,2026-05-19T05:15:00.520128,15.33452438,.000083,97.2841,204.4409,101.0972,259.0364,0,U,67604,999,1814,.1982627E-3,.6332E-4,0
STARLINK-36281,2026-018S,2026-05-19T04:08:26.987712,15.33470481,.00010484,97.2851,204.3537,96.4932,263.6430,0,U,67605,999,1813,.59249847E-3,.19117E-3,0
STARLINK-35843,2026-018T,2026-05-19T03:33:12.716640,15.33460696,.00009182,97.2838,204.3844,104.9650,255.1695,0,U,67606,999,1813,.38758513E-3,.12464E-3,0
STARLINK-36351,2026-018U,2026-05-19T03:13:38.956224,15.33460642,.0001046,97.2840,204.4032,85.2214,274.9148,0,U,67607,999,1813,.59018501E-3,.19036E-3,0
STARLINK-36411,2026-018V,2026-05-19T04:12:22.078656,15.33468012,.00006799,97.2841,204.3491,109.4403,250.6913,0,U,67608,999,1813,.51180152E-3,.16496E-3,0
STARLINK-36312,2026-018W,2026-05-19T03:09:44.082144,15.33447010,.00002939,97.2860,204.4095,90.1371,269.9905,0,U,67609,999,1813,.47032454E-3,.1514E-3,0
STARLINK-36387,2026-018X,2026-05-19T04:35:25.772928,15.75168610,.00022112,97.2817,208.6004,6.6923,353.4371,0,U,67610,999,1841,.89277761E-3,.135041E-2,0
STARLINK-36636,2026-018Y,2026-05-19T02:46:13.528704,15.33464658,.0000314,97.2838,204.2766,148.1201,212.0061,0,U,67611,999,1812,.47719116E-3,.15371E-3,0
STARLINK-36407,2026-018Z,2026-05-19T04:35:50.305344,15.33474756,.00010343,97.2841,204.4827,116.8210,243.3138,0,U,67612,999,1819,-.4382042E-3,-.14209E-3,0
STARLINK-36597,2026-018AA,2026-05-19T04:00:37.115136,15.33460009,.00009529,97.2843,204.3611,118.4091,241.7248,0,U,67613,999,1813,.35237769E-3,.11323E-3,0
NEONSAT-1A,2026-019A,2026-05-19T07:29:18.765600,15.08247494,.00118008,97.4235,260.4435,294.1862,65.8132,0,U,67614,999,1646,.86751358E-4,.1284E-4,0
STARLINK-36548,2026-020A,2026-05-19T06:21:10.137024,15.27587462,.00012155,43.0011,101.5216,278.5399,81.5315,0,U,67617,999,1690,.49971471E-3,.13517E-3,0
STARLINK-36601,2026-020B,2026-05-19T06:00:48.669120,15.27578877,.00010539,43.0007,101.3957,263.1046,96.9686,0,U,67618,999,1690,.21605583E-3,.5688E-4,0
STARLINK-36119,2026-020C,2026-05-19T06:11:55.207104,15.27600837,.00010881,43.0005,101.4687,248.3244,111.7491,0,U,67619,999,1690,.31440863E-3,.8405E-4,0
STARLINK-36607,2026-020D,2026-05-19T06:45:00.431136,15.27585622,.00016478,43.0057,100.7587,258.7303,101.3364,0,U,67620,999,1691,.34669006E-3,.9292E-4,0
STARLINK-36615,2026-020E,2026-05-19T04:50:42.616896,15.27582758,.00007569,43.0016,101.8869,270.4857,89.5908,0,U,67621,999,1689,.32465296E-3,.8683E-4,0
STARLINK-36614,2026-020F,2026-05-19T05:57:07.653600,15.27595759,.00011999,43.0005,101.3861,270.0175,90.0539,0,U,67622,999,1690,.32691336E-3,.8749E-4,0
STARLINK-36600,2026-020G,2026-05-19T06:06:22.094496,15.27583160,.00007746,43.0016,101.4423,259.3061,100.7703,0,U,67623,999,1690,.27800762E-3,.7397E-4,0
STARLINK-36439,2026-020H,2026-05-19T05:42:17.222112,15.27579201,.00014272,43.0011,101.3093,264.7549,95.3140,0,U,67624,999,1690,-.99919622E-4,-.3011E-4,0
STARLINK-36438,2026-020J,2026-05-19T05:53:24.859104,15.27578815,.00006819,43.0005,101.3684,254.4356,105.6420,0,U,67625,999,1690,.27145033E-3,.7215E-4,0
STARLINK-36436,2026-020K,2026-05-19T05:21:57.217824,15.27582383,.00015417,43.0042,101.1918,266.9743,93.0933,0,U,67626,999,1690,.3745922E-3,.10061E-3,0
STARLINK-36502,2026-020L,2026-05-19T05:36:45.904032,15.27577865,.00014489,43.0021,101.2840,279.7904,80.2784,0,U,67627,999,1690,.28410029E-3,.7563E-4,0
STARLINK-36532,2026-020M,2026-05-19T07:03:30.806784,15.27586127,.00014973,43.0036,100.8574,272.8879,87.1802,0,U,67628,999,1691,.33179511E-3,.8881E-4,0
STARLINK-36367,2026-020N,2026-05-18T23:03:28.657440,15.27581957,.00020253,43.0060,102.6617,267.4716,92.5904,0,U,67629,999,1686,.46080818E-3,.1244E-3,0
